[{"OBJECT_NAME":"YAM-10","OBJECT_ID":"2025-135BE","EPOCH":"2026-03-09T20:43:26.582304","MEAN_MOTION":14.91406744,"ECCENTRICITY":0.00023115,"INCLINATION":97.7596,"RA_OF_ASC_NODE":184.195,"ARG_OF_PERICENTER":348.9926,"MEAN_ANOMALY":11.1242,"EPHEMERIS_TYPE":0,"CLASSIFICATION_TYPE":"U","NORAD_CAT_ID":64580,"ELEMENT_SET_NO":999,"REV_AT_EPOCH":3905,"BSTAR":0.00037713307,"MEAN_MOTION_DOT":3.711e-5,"MEAN_MOTION_DDOT":0},{"OBJECT_NAME":"FENGYUN 1C DEB","OBJECT_ID":"1999-025EEA","EPOCH":"2026-03-08T14:09:58.603104","MEAN_MOTION":14.79058991,"ECCENTRICITY":0.00515298,"INCLINATION":98.5873,"RA_OF_ASC_NODE":197.894,"ARG_OF_PERICENTER":121.6387,"MEAN_ANOMALY":238.9865,"EPHEMERIS_TYPE":0,"CLASSIFICATION_TYPE":"U","NORAD_CAT_ID":37042,"ELEMENT_SET_NO":999,"REV_AT_EPOCH":74065,"BSTAR":0.004504859,"MEAN_MOTION_DOT":0.00034175,"MEAN_MOTION_DDOT":0}]
